{
  "norad_id": 66501,
  "name": "STARLINK-35897",
  "history": [
    {
      "epoch": "2026-03-28T18:01:28.238592",
      "apogee_km": 484.0489202787048,
      "perigee_km": 481.91922829724535,
      "latitude_deg": -41.33066834978546,
      "longitude_deg": -177.80195711995475,
      "semi_major_axis_km": 6861.121074287975,
      "eccentricity": 0.0001552,
      "inclination_deg": 43.0044,
      "raan_deg": 243.0925,
      "arg_perigee_deg": 285.641,
      "mean_anomaly_deg": 74.427,
      "mean_motion_rev_day": 15.27601715
    }
  ]
}